NORAD_CAT_ID,OBJECT_NAME,OBJECT_TYPE,EPOCH,MEAN_MOTION,ECCENTRICITY,INCLINATION,RA_OF_ASC_NODE,ARG_OF_PERICENTER,MEAN_ANOMALY,BSTAR,MEAN_MOTION_DOT,MEAN_MOTION_DDOT,TLE_LINE0,TLE_LINE1,TLE_LINE2,SEMIMAJOR_AXIS,PERIOD,APOGEE,PERIGEE,DECAYED
52708.0,STARLINK-3962,PAYLOAD,2022-11-08 22:35:16,15.08884764,0.0002268,53.2182,196.3084,36.4726,323.6421,0.00094703,0.00014835,0.0,0 STARLINK-3962,1 52708U 22053BE  22312.94116805  .00014835  00000-0  94703-3 0  9995,2 52708  53.2182 196.3084 0002268  36.4726 323.6421 15.08884764 27834,6917.744000000002,95.435,541.178,538.04,0.0
52708.0,STARLINK-3962,PAYLOAD,2022-11-09 20:50:41,15.08800136,0.0003275,53.2182,192.1466,32.0615,328.0576,0.00051218,7.864e-05,0.0,0 STARLINK-3962,1 52708U 22053BE  22313.86853603  .00007864  00000-0  51218-3 0  9999,2 52708  53.2182 192.1466 0003275  32.0615 328.0576 15.08800136 27976,6918.002,95.44,542.133,537.602,0.0
52708.0,STARLINK-3962,PAYLOAD,2022-11-10 03:12:14,15.08809488,0.0002891,53.2173,190.9612,28.1477,331.9671,-5.3519e-05,-1.14e-05,0.0,0 STARLINK-3962,1 52708U 22053BE  22314.13350010 -.00001140  00000-0 -53519-4 0  9994,2 52708  53.2173 190.9612 0002891  28.1477 331.9671 15.08809488 27383,6917.974,95.439,541.839,537.839,0.0
52708.0,STARLINK-3962,PAYLOAD,2022-11-10 09:33:47,15.08809883,0.0002849,53.2178,189.7719,30.8607,329.2552,0.0014249,0.00022444,0.0,0 STARLINK-3962,1 52708U 22053BE  22314.39846999  .00022444  00000-0  14249-2 0  9991,2 52708  53.2178 189.7719 0002849  30.8607 329.2552 15.08809883 28052,6917.972,95.439,541.808,537.867,0.0
52708.0,STARLINK-3962,PAYLOAD,2022-11-10 20:41:30,15.08830282,0.0002895,53.2173,187.6906,31.3733,328.7431,0.0013451,0.00021179,0.0,0 STARLINK-3962,1 52708U 22053BE  22314.86215586  .00021179  00000-0  13451-2 0  9993,2 52708  53.2173 187.6906 0002895  31.3733 328.7431 15.08830282 28124,6917.91,95.438,541.778,537.7719999999998,0.0
52708.0,STARLINK-3962,PAYLOAD,2022-11-11 10:59:58,15.0883112,0.0002755,53.2153,185.0119,36.5275,323.5905,0.0005788,8.933e-05,0.0,0 STARLINK-3962,1 52708U 22053BE  22315.45832118  .00008933  00000-0  57880-3 0  9993,2 52708  53.2153 185.0119 0002755  36.5275 323.5905 15.08831120 28214,6917.908,95.438,541.678,537.867,0.0
52708.0,STARLINK-3962,PAYLOAD,2022-11-11 18:56:54,15.08829461,0.0002821,53.2168,183.5264,32.0574,328.0589,0.00036407,5.509e-05,0.0,0 STARLINK-3962,1 52708U 22053BE  22315.78952459  .00005509  00000-0  36407-3 0  9998,2 52708  53.2168 183.5264 0002821  32.0574 328.0589 15.08829461 27639,6917.913000000001,95.438,541.729,537.826,0.0
52708.0,STARLINK-3962,PAYLOAD,2022-11-11 22:07:41,15.08834292,0.0002787,53.2169,182.9321,32.305,327.8112,0.00048236,7.396e-05,0.0,0 STARLINK-3962,1 52708U 22053BE  22315.92200487  .00007396  00000-0  48236-3 0  9990,2 52708  53.2169 182.9321 0002787  32.3050 327.8112 15.08834292 28289,6917.898,95.438,541.691,537.835,0.0
52708.0,STARLINK-3962,PAYLOAD,2022-11-12 07:39:59,15.088447199999996,0.0002809,53.2169,181.1481,32.8243,327.2923,0.00063457,9.827e-05,0.0,0 STARLINK-3962,1 52708U 22053BE  22316.31944436  .00009827  00000-0  63457-3 0  9996,2 52708  53.2169 181.1481 0002809  32.8243 327.2923 15.08844720 28349,6917.866,95.437,541.674,537.788,0.0
52708.0,STARLINK-3962,PAYLOAD,2022-11-12 18:47:41,15.08855236,0.0002836,53.2169,179.0664,31.6787,328.4376,0.00071282,0.0001107999999999,0.0,0 STARLINK-3962,1 52708U 22053BE  22316.78312095  .00011080  00000-0  71282-3 0  9996,2 52708  53.2169 179.0664 0002836  31.6787 328.4376 15.08855236 27784,6917.834,95.437,541.661,537.737,0.0
52708.0,STARLINK-3962,PAYLOAD,2022-11-12 21:58:27,15.08858382,0.0002824,53.217,178.4716,33.4886,326.6284,0.00066431,0.00010306,0.0,0 STARLINK-3962,1 52708U 22053BE  22316.91559886  .00010306  00000-0  66431-3 0  9992,2 52708  53.2170 178.4716 0002824  33.4886 326.6284 15.08858382 28430,6917.824000000001,95.436,541.643,537.736,0.0
52708.0,STARLINK-3962,PAYLOAD,2022-11-13 10:41:32,15.08858447,0.0002807,53.2167,176.0933,34.406,325.7114,0.00038006,5.769e-05,0.0,0 STARLINK-3962,1 52708U 22053BE  22317.44551400  .00005769  00000-0  38006-3 0  9999,2 52708  53.2167 176.0933 0002807  34.4060 325.7114 15.08858447 28510,6917.824000000001,95.436,541.631,537.747,0.0
52708.0,STARLINK-3962,PAYLOAD,2022-11-13 18:38:28,15.08846421,0.000281,53.2168,174.6056,31.4365,328.6795,-6.1691e-05,-1.271e-05,0.0,0 STARLINK-3962,1 52708U 22053BE  22317.77671420 -.00001271  00000-0 -61691-4 0  9993,2 52708  53.2168 174.6056 0002810  31.4365 328.6795 15.08846421 27931,6917.861,95.437,541.67,537.7819999999998,0.0
52708.0,STARLINK-3962,PAYLOAD,2022-11-14 07:21:33,15.08838856,0.0002771,53.217,172.2266,33.2062,326.9103,-0.00012018,-2.201e-05,0.0,0 STARLINK-3962,1 52708U 22053BE  22318.30663560 -.00002201  00000-0 -12018-3 0  9991,2 52708  53.2170 172.2266 0002771  33.2062 326.9103 15.08838856 28647,6917.884,95.438,541.6659999999998,537.832,0.0
52708.0,STARLINK-3962,PAYLOAD,2022-11-14 16:53:52,15.08841475,0.0002868,53.2169,170.4428,33.8453,326.2722,-7.1321000000000016e-06,-4.02e-06,0.0,0 STARLINK-3962,1 52708U 22053BE  22318.70407582 -.00000402  00000-0 -71321-5 0  9990,2 52708  53.2169 170.4428 0002868  33.8453 326.2722 15.08841475 28700,6917.876,95.437,541.725,537.757,0.0
52708.0,STARLINK-3962,PAYLOAD,2022-11-14 21:40:01,15.08845878,0.0002888,53.2173,169.5506,34.5698,325.5482,-1.9239e-05,-5.95e-06,0.0,0 STARLINK-3962,1 52708U 22053BE  22318.90279452 -.00000595  00000-0 -19239-4 0  9997,2 52708  53.2173 169.5506 0002888  34.5698 325.5482 15.08845878 28102,6917.861999999999,95.437,541.725,537.73,0.0
52708.0,STARLINK-3962,PAYLOAD,2022-11-15 07:12:20,15.08847084,0.0002865,53.2173,167.7666,35.117,325.001,5.2767e-05,5.51e-06,0.0,0 STARLINK-3962,1 52708U 22053BE  22319.30023277  .00000551  00000-0  52767-4 0  9997,2 52708  53.2173 167.7666 0002865  35.1170 325.0010 15.08847084 28794,6917.859,95.437,541.706,537.742,0.0
52708.0,STARLINK-3962,PAYLOAD,2022-11-15 19:55:27,15.08789456,0.0002958,53.2186,165.3874,46.2325,313.8912,0.0011339,0.0001778,0.0,0 STARLINK-3962,1 52708U 22053BE  22319.83017934  .00017780  00000-0  11339-2 0  9998,2 52708  53.2186 165.3874 0002958  46.2325 313.8912 15.08789456 28245,6918.035,95.441,541.946,537.854,0.0
52708.0,STARLINK-3962,PAYLOAD,2022-11-15 21:30:48,15.08845182,0.0002767,53.2183,165.0901,32.5284,327.5878,0.00010574,1.395e-05,0.0,0 STARLINK-3962,1 52708U 22053BE  22319.89639278  .00001395  00000-0  10574-3 0  9991,2 52708  53.2183 165.0901 0002767  32.5284 327.5878 15.08845182 28882,6917.865,95.437,541.644,537.815,0.0
52708.0,STARLINK-3962,PAYLOAD,2022-11-15 23:06:11,15.08838559,0.0002709,53.2181,164.7933,34.9107,325.2062,0.00012,1.622e-05,0.0,0 STARLINK-3962,1 52708U 22053BE  22319.96263685  .00001622  00000-0  12000-3 0  9993,2 52708  53.2181 164.7933 0002709  34.9107 325.2062 15.08838559 28269,6917.885,95.438,541.624,537.876,0.0
52708.0,STARLINK-3962,PAYLOAD,2022-11-16 13:24:40,15.08841075,0.0002871,53.218,162.1175,36.9306,323.1883,9.0486e-05,1.152e-05,0.0,0 STARLINK-3962,1 52708U 22053BE  22320.55879795  .00001152  00000-0  90486-4 0  9998,2 52708  53.2180 162.1175 0002871  36.9306 323.1883 15.08841075 28985,6917.877,95.437,541.7280000000002,537.756,0.0
52708.0,STARLINK-3962,PAYLOAD,2022-11-16 19:46:12,15.0884309,0.0002881,53.2181,160.928,37.1627,322.9565,5.9212e-05,6.54e-06,0.0,0 STARLINK-3962,1 52708U 22053BE  22320.82375672  .00000654  00000-0  59212-4 0  9991,2 52708  53.2181 160.9280 0002881  37.1627 322.9565 15.08843090 29028,6917.871,95.437,541.729,537.743,0.0
52708.0,STARLINK-3962,PAYLOAD,2022-11-17 13:15:26,15.08850282,0.0002877,53.218,157.657,38.1817,321.9378,6.282e-05,7.12e-06,0.0,0 STARLINK-3962,1 52708U 22053BE  22321.55238935  .00000712  00000-0  62820-4 0  9996,2 52708  53.2180 157.6570 0002877  38.1817 321.9378 15.08850282 29133,6917.849,95.437,541.7040000000002,537.724,0.0
52708.0,STARLINK-3962,PAYLOAD,2022-11-17 19:36:58,15.08872968,0.0003063,53.2179,156.4676,35.5434,324.5762,-0.00037488,-6.256e-05,0.0,0 STARLINK-3962,1 52708U 22053BE  22321.81733862 -.00006256  00000-0 -37488-3 0  9996,2 52708  53.2179 156.4676 0003063  35.5434 324.5762 15.08872968 29174,6917.78,95.435,541.764,537.526,0.0
52708.0,STARLINK-3962,PAYLOAD,2022-11-18 16:17:01,15.08824634,0.0002978,53.2176,152.6021,39.3635,320.7573,0.00012038,1.627e-05,0.0,0 STARLINK-3962,1 52708U 22053BE  22322.67848598  .00001627  00000-0  12038-3 0  9993,2 52708  53.2176 152.6021 0002978  39.3635 320.7573 15.08824634 28671,6917.927,95.439,541.8530000000002,537.732,0.0
52708.0,STARLINK-3962,PAYLOAD,2022-11-18 19:27:46,15.08835975,0.0002961,53.2176,152.0074,40.5078,319.6134,2.7229e-05,1.45e-06,0.0,0 STARLINK-3962,1 52708U 22053BE  22322.81096016  .00000145  00000-0  27229-4 0  9992,2 52708  53.2176 152.0074 0002961  40.5078 319.6134 15.08835975 29323,6917.893,95.438,541.806,537.7090000000002,0.0
52708.0,STARLINK-3962,PAYLOAD,2022-11-18 22:38:33,15.08838196,0.000294,53.2178,151.4122,40.8274,319.2938,3.8294e-05,3.21e-06,0.0,0 STARLINK-3962,1 52708U 22053BE  22322.94343873  .00000321  00000-0  38294-4 0  9992,2 52708  53.2178 151.4122 0002940  40.8274 319.2938 15.08838196 28718,6917.886,95.438,541.785,537.717,0.0
52708.0,STARLINK-3962,PAYLOAD,2022-11-19 19:18:33,15.08845513,0.0002933,53.2185,147.5457,39.9177,320.203,-0.00015503,-2.756e-05,0.0,0 STARLINK-3962,1 52708U 22053BE  22323.80455990 -.00002756  00000-0 -15503-3 0  9995,2 52708  53.2185 147.5457 0002933  39.9177 320.2030 15.08845513 29476,6917.864000000001,95.437,541.758,537.7,0.0
52708.0,STARLINK-3962,PAYLOAD,2022-11-20 08:01:39,15.08833485,0.0002962,53.218,145.1669,41.2323,318.8892,5.632100000000001e-05,6.08e-06,0.0,0 STARLINK-3962,1 52708U 22053BE  22324.33448571  .00000608  00000-0  56321-4 0  9997,2 52708  53.2180 145.1669 0002962  41.2323 318.8892 15.08833485 28924,6917.9,95.438,541.814,537.716,0.0
